CCSDS_OMM_VERS = 2.0
CREATION_DATE  = 
ORIGINATOR     = 

OBJECT_NAME    = STARLINK-36426
OBJECT_ID      = 2026-014AA
CENTER_NAME    = EARTH
REF_FRAME      = TEME
TIME_SYSTEM    = UTC
MEAN_ELEMENT_THEORY = SGP/SGP4

EPOCH          = 2026-02-05T18:00:02.000160
MEAN_MOTION    = 15.80842636
ECCENTRICITY   = .00013608
INCLINATION    = 97.2744
RA_OF_ASC_NODE = 280.0815
ARG_OF_PERICENTER = 101.0723
MEAN_ANOMALY   = 273.2695

EPHEMERIS_TYPE = 0
CLASSIFICATION_TYPE = U
NORAD_CAT_ID   = 67560
ELEMENT_SET_NO = 999
REV_AT_EPOCH   = 239
BSTAR          = -.29253495E-3
MEAN_MOTION_DOT = -.55886E-3
MEAN_MOTION_DDOT = 0

CCSDS_OMM_VERS = 2.0
CREATION_DATE  = 
ORIGINATOR     = 

OBJECT_NAME    = STARLINK-36621
OBJECT_ID      = 2026-016A
CENTER_NAME    = EARTH
REF_FRAME      = TEME
TIME_SYSTEM    = UTC
MEAN_ELEMENT_THEORY = SGP/SGP4

EPOCH          = 2026-02-05T18:00:02.000160
MEAN_MOTION    = 15.80953729
ECCENTRICITY   = .00012839
INCLINATION    = 97.2805
RA_OF_ASC_NODE = 95.5399
ARG_OF_PERICENTER = 69.7655
MEAN_ANOMALY   = 66.9682

EPHEMERIS_TYPE = 0
CLASSIFICATION_TYPE = U
NORAD_CAT_ID   = 67561
ELEMENT_SET_NO = 999
REV_AT_EPOCH   = 291
BSTAR          = -.10843777E-2
MEAN_MOTION_DOT = -.204353E-2
MEAN_MOTION_DDOT = 0

CCSDS_OMM_VERS = 2.0
CREATION_DATE  = 
ORIGINATOR     = 

OBJECT_NAME    = STARLINK-36398
OBJECT_ID      = 2026-016B
CENTER_NAME    = EARTH
REF_FRAME      = TEME
TIME_SYSTEM    = UTC
MEAN_ELEMENT_THEORY = SGP/SGP4

EPOCH          = 2026-02-05T18:00:02.000160
MEAN_MOTION    = 15.81208092
ECCENTRICITY   = .00013533
INCLINATION    = 97.2805
RA_OF_ASC_NODE = 95.5429
ARG_OF_PERICENTER = 68.4398
MEAN_ANOMALY   = 74.9227

EPHEMERIS_TYPE = 0
CLASSIFICATION_TYPE = U
NORAD_CAT_ID   = 67562
ELEMENT_SET_NO = 999
REV_AT_EPOCH   = 289
BSTAR          = -.29984174E-2
MEAN_MOTION_DOT = -.549611E-2
MEAN_MOTION_DDOT = 0

CCSDS_OMM_VERS = 2.0
CREATION_DATE  = 
ORIGINATOR     = 

OBJECT_NAME    = STARLINK-36403
OBJECT_ID      = 2026-016C
CENTER_NAME    = EARTH
REF_FRAME      = TEME
TIME_SYSTEM    = UTC
MEAN_ELEMENT_THEORY = SGP/SGP4

EPOCH          = 2026-02-05T18:00:02.000160
MEAN_MOTION    = 15.81497194
ECCENTRICITY   = .0001285
INCLINATION    = 97.2810
RA_OF_ASC_NODE = 95.5458
ARG_OF_PERICENTER = 79.2013
MEAN_ANOMALY   = 69.8776

EPHEMERIS_TYPE = 0
CLASSIFICATION_TYPE = U
NORAD_CAT_ID   = 67563
ELEMENT_SET_NO = 999
REV_AT_EPOCH   = 301
BSTAR          = -.49968259E-2
MEAN_MOTION_DOT = -.892496E-2
MEAN_MOTION_DDOT = 0

CCSDS_OMM_VERS = 2.0
CREATION_DATE  = 
ORIGINATOR     = 

OBJECT_NAME    = STARLINK-36593
OBJECT_ID      = 2026-016D
CENTER_NAME    = EARTH
REF_FRAME      = TEME
TIME_SYSTEM    = UTC
MEAN_ELEMENT_THEORY = SGP/SGP4

EPOCH          = 2026-02-05T18:00:02.000160
MEAN_MOTION    = 15.81910861
ECCENTRICITY   = .00014592
INCLINATION    = 97.2811
RA_OF_ASC_NODE = 95.5481
ARG_OF_PERICENTER = 67.2830
MEAN_ANOMALY   = 88.4579

EPHEMERIS_TYPE = 0
CLASSIFICATION_TYPE = U
NORAD_CAT_ID   = 67564
ELEMENT_SET_NO = 999
REV_AT_EPOCH   = 285
BSTAR          = -.74808541E-2
MEAN_MOTION_DOT = -.1324708E-1
MEAN_MOTION_DDOT = 0

CCSDS_OMM_VERS = 2.0
CREATION_DATE  = 
ORIGINATOR     = 

OBJECT_NAME    = STARLINK-35725
OBJECT_ID      = 2026-016E
CENTER_NAME    = EARTH
REF_FRAME      = TEME
TIME_SYSTEM    = UTC
MEAN_ELEMENT_THEORY = SGP/SGP4

EPOCH          = 2026-02-05T18:00:02.000160
MEAN_MOTION    = 15.82220631
ECCENTRICITY   = .00018381
INCLINATION    = 97.2806
RA_OF_ASC_NODE = 95.5487
ARG_OF_PERICENTER = 78.0409
MEAN_ANOMALY   = 82.6569

EPHEMERIS_TYPE = 0
CLASSIFICATION_TYPE = U
NORAD_CAT_ID   = 67565
ELEMENT_SET_NO = 999
REV_AT_EPOCH   = 290
BSTAR          = -.9122728E-2
MEAN_MOTION_DOT = -.1629051E-1
MEAN_MOTION_DDOT = 0

CCSDS_OMM_VERS = 2.0
CREATION_DATE  = 
ORIGINATOR     = 

OBJECT_NAME    = STARLINK-36394
OBJECT_ID      = 2026-016F
CENTER_NAME    = EARTH
REF_FRAME      = TEME
TIME_SYSTEM    = UTC
MEAN_ELEMENT_THEORY = SGP/SGP4

EPOCH          = 2026-02-05T18:00:02.000160
MEAN_MOTION    = 15.83098722
ECCENTRICITY   = .00018488
INCLINATION    = 97.2802
RA_OF_ASC_NODE = 95.5572
ARG_OF_PERICENTER = 77.9118
MEAN_ANOMALY   = 103.7813

EPHEMERIS_TYPE = 0
CLASSIFICATION_TYPE = U
NORAD_CAT_ID   = 67566
ELEMENT_SET_NO = 999
REV_AT_EPOCH   = 301
BSTAR          = -.96497431E-2
MEAN_MOTION_DOT = -.1772399E-1
MEAN_MOTION_DDOT = 0

CCSDS_OMM_VERS = 2.0
CREATION_DATE  = 
ORIGINATOR     = 

OBJECT_NAME    = STARLINK-36352
OBJECT_ID      = 2026-016G
CENTER_NAME    = EARTH
REF_FRAME      = TEME
TIME_SYSTEM    = UTC
MEAN_ELEMENT_THEORY = SGP/SGP4

EPOCH          = 2026-02-05T18:00:02.000160
MEAN_MOTION    = 15.82851777
ECCENTRICITY   = .00018278
INCLINATION    = 97.2801
RA_OF_ASC_NODE = 95.5547
ARG_OF_PERICENTER = 81.1372
MEAN_ANOMALY   = 94.2858

EPHEMERIS_TYPE = 0
CLASSIFICATION_TYPE = U
NORAD_CAT_ID   = 67567
ELEMENT_SET_NO = 999
REV_AT_EPOCH   = 291
BSTAR          = -.98963684E-2
MEAN_MOTION_DOT = -.1832241E-1
MEAN_MOTION_DDOT = 0

CCSDS_OMM_VERS = 2.0
CREATION_DATE  = 
ORIGINATOR     = 

OBJECT_NAME    = STARLINK-36435
OBJECT_ID      = 2026-016H
CENTER_NAME    = EARTH
REF_FRAME      = TEME
TIME_SYSTEM    = UTC
MEAN_ELEMENT_THEORY = SGP/SGP4

EPOCH          = 2026-02-05T18:00:02.000160
MEAN_MOTION    = 15.83342472
ECCENTRICITY   = .00018141
INCLINATION    = 97.2803
RA_OF_ASC_NODE = 95.5595
ARG_OF_PERICENTER = 80.8524
MEAN_ANOMALY   = 106.3755

EPHEMERIS_TYPE = 0
CLASSIFICATION_TYPE = U
NORAD_CAT_ID   = 67568
ELEMENT_SET_NO = 999
REV_AT_EPOCH   = 291
BSTAR          = -.97980569E-2
MEAN_MOTION_DOT = -.1853655E-1
MEAN_MOTION_DDOT = 0

CCSDS_OMM_VERS = 2.0
CREATION_DATE  = 
ORIGINATOR     = 

OBJECT_NAME    = STARLINK-36575
OBJECT_ID      = 2026-016J
CENTER_NAME    = EARTH
REF_FRAME      = TEME
TIME_SYSTEM    = UTC
MEAN_ELEMENT_THEORY = SGP/SGP4

EPOCH          = 2026-02-05T18:00:02.000160
MEAN_MOTION    = 15.83592051
ECCENTRICITY   = .00018629
INCLINATION    = 97.2800
RA_OF_ASC_NODE = 95.5625
ARG_OF_PERICENTER = 83.7417
MEAN_ANOMALY   = 109.7621

EPHEMERIS_TYPE = 0
CLASSIFICATION_TYPE = U
NORAD_CAT_ID   = 67569
ELEMENT_SET_NO = 999
REV_AT_EPOCH   = 291
BSTAR          = -.96428443E-2
MEAN_MOTION_DOT = -.1847035E-1
MEAN_MOTION_DDOT = 0

CCSDS_OMM_VERS = 2.0
CREATION_DATE  = 
ORIGINATOR     = 

OBJECT_NAME    = STARLINK-36562
OBJECT_ID      = 2026-016K
CENTER_NAME    = EARTH
REF_FRAME      = TEME
TIME_SYSTEM    = UTC
MEAN_ELEMENT_THEORY = SGP/SGP4

EPOCH          = 2026-02-05T18:00:02.000160
MEAN_MOTION    = 15.83782337
ECCENTRICITY   = .00016896
INCLINATION    = 97.2797
RA_OF_ASC_NODE = 95.5641
ARG_OF_PERICENTER = 91.1368
MEAN_ANOMALY   = 107.0594

EPHEMERIS_TYPE = 0
CLASSIFICATION_TYPE = U
NORAD_CAT_ID   = 67570
ELEMENT_SET_NO = 999
REV_AT_EPOCH   = 291
BSTAR          = -.95621246E-2
MEAN_MOTION_DOT = -.1808088E-1
MEAN_MOTION_DDOT = 0

CCSDS_OMM_VERS = 2.0
CREATION_DATE  = 
ORIGINATOR     = 

OBJECT_NAME    = STARLINK-36578
OBJECT_ID      = 2026-016L
CENTER_NAME    = EARTH
REF_FRAME      = TEME
TIME_SYSTEM    = UTC
MEAN_ELEMENT_THEORY = SGP/SGP4

EPOCH          = 2026-02-05T18:00:02.000160
MEAN_MOTION    = 15.83989707
ECCENTRICITY   = .00017744
INCLINATION    = 97.2799
RA_OF_ASC_NODE = 95.5659
ARG_OF_PERICENTER = 82.4830
MEAN_ANOMALY   = 121.0453

EPHEMERIS_TYPE = 0
CLASSIFICATION_TYPE = U
NORAD_CAT_ID   = 67571
ELEMENT_SET_NO = 999
REV_AT_EPOCH   = 289
BSTAR          = -.94152829E-2
MEAN_MOTION_DOT = -.179964E-1
MEAN_MOTION_DDOT = 0

